NORAD_CAT_ID,OBJECT_NAME,OBJECT_TYPE,EPOCH,MEAN_MOTION,ECCENTRICITY,INCLINATION,RA_OF_ASC_NODE,ARG_OF_PERICENTER,MEAN_ANOMALY,BSTAR,MEAN_MOTION_DOT,MEAN_MOTION_DDOT,TLE_LINE0,TLE_LINE1,TLE_LINE2,SEMIMAJOR_AXIS,PERIOD,APOGEE,PERIGEE,DECAYED
49181.0,STARLINK-3059,PAYLOAD,2022-09-24 04:03:55,14.98345965,0.0003099,69.9986,237.7135,261.4838,98.597,0.00023249,2.683e-05,0.0,0 STARLINK-3059,1 49181U 21082BD  22267.16938776  .00002683  00000-0  23249-3 0  9994,2 49181  69.9986 237.7135 0003099 261.4838  98.5970 14.98345965 58031,6950.144,96.106,574.1619999999998,569.855,0.0
49181.0,STARLINK-3059,PAYLOAD,2022-09-24 10:28:28,14.98334297,0.0003191,69.9985,237.0408,260.1627,99.9172,9.3864e-05,1.027e-05,0.0,0 STARLINK-3059,1 49181U 21082BD  22267.43643570  .00001027  00000-0  93864-4 0  9991,2 49181  69.9985 237.0408 0003191 260.1627  99.9172 14.98334297 58070,6950.18,96.107,574.262,569.827,0.0
49181.0,STARLINK-3059,PAYLOAD,2022-09-24 15:16:52,14.98334808,0.0003188999999999,69.9985,236.5356,259.7529,100.3271,8.3911e-05,9.08e-06,0.0,0 STARLINK-3059,1 49181U 21082BD  22267.63671443  .00000908  00000-0  83911-4 0  9992,2 49181  69.9985 236.5356 0003189 259.7529 100.3271 14.98334808 58129,6950.178000000001,96.107,574.259,569.827,0.0
49181.0,STARLINK-3059,PAYLOAD,2022-09-25 07:18:12,14.98341385,0.0003103,69.9985,234.8523,258.0143,102.0668,0.00010132,1.116e-05,0.0,0 STARLINK-3059,1 49181U 21082BD  22268.30430657  .00001116  00000-0  10132-3 0  9993,2 49181  69.9985 234.8523 0003103 258.0143 102.0668 14.98341385 58224,6950.158,96.106,574.179,569.866,0.0
49181.0,STARLINK-3059,PAYLOAD,2022-09-26 05:44:05,14.98332666,0.0002944,69.9988,232.495,260.54900000000004,99.5337,-5.3013e-05,-7.26e-06,0.0,0 STARLINK-3059,1 49181U 21082BD  22269.23895254 -.00000726  00000-0 -53013-4 0  9998,2 49181  69.9988 232.4950 0002944 260.5490  99.5337 14.98332666 58348,6950.185,96.107,574.096,570.004,0.0
49181.0,STARLINK-3059,PAYLOAD,2022-09-26 07:20:14,14.98315797,0.000263,69.9988,232.3267,251.0634,109.024,0.00026976,3.126e-05,0.0,0 STARLINK-3059,1 49181U 21082BD  22269.30571772  .00003126  00000-0  26976-3 0  9994,2 49181  69.9988 232.3267 0002630 251.0634 109.0240 14.98315797 58374,6950.236999999999,96.108,573.93,570.274,0.0
49181.0,STARLINK-3059,PAYLOAD,2022-09-27 02:33:50,14.98322765,0.0002907,69.9992,230.3069,255.035,105.0487,0.00036859,4.307e-05,0.0,0 STARLINK-3059,1 49181U 21082BD  22270.10683189  .00004307  00000-0  36859-3 0  9993,2 49181  69.9992 230.3069 0002907 255.0350 105.0487 14.98322765 58476,6950.215,96.107,574.101,570.06,0.0
49181.0,STARLINK-3059,PAYLOAD,2022-09-27 08:58:22,14.98329042,0.0002461999999999,69.9994,229.6319,257.0023,103.0861,3.1832e-05,2.87e-06,0.0,0 STARLINK-3059,1 49181U 21082BD  22270.37387301  .00000287  00000-0  31832-4 0  9999,2 49181  69.9994 229.6319 0002462 257.0023 103.0861 14.98329042 58538,6950.196,96.107,573.7719999999998,570.35,0.0
49181.0,STARLINK-3059,PAYLOAD,2022-09-28 04:12:00,14.98319384,0.0002838,69.9998,227.6147,256.9642,103.12,1.6825999999999998e-05,1.08e-06,0.0,0 STARLINK-3059,1 49181U 21082BD  22271.17500259  .00000108  00000-0  16826-4 0  9995,2 49181  69.9998 227.6147 0002838 256.9642 103.1200 14.98319384 58638,6950.226,96.108,574.063,570.118,0.0
49181.0,STARLINK-3059,PAYLOAD,2022-09-28 13:48:48,14.98315565,0.0002984,69.9991,226.604,269.8939,90.1878,0.00020115,2.307e-05,0.0,0 STARLINK-3059,1 49181U 21082BD  22271.57556498  .00002307  00000-0  20115-3 0  9993,2 49181  69.9991 226.6040 0002984 269.8939  90.1878 14.98315565 58718,6950.238,96.108,574.1759999999998,570.029,0.0
49181.0,STARLINK-3059,PAYLOAD,2022-09-29 02:37:52,14.9833155,0.0003023,69.9992,225.2572,261.3786,98.7031,3.8461e-05,3.66e-06,0.0,0 STARLINK-3059,1 49181U 21082BD  22272.10963869  .00000366  00000-0  38461-4 0  9994,2 49181  69.9992 225.2572 0003023 261.3786  98.7031 14.98331550 58779,6950.188,96.107,574.154,569.952,0.0
49181.0,STARLINK-3059,PAYLOAD,2022-09-29 07:26:16,14.98334535,0.0003037,69.9992,224.7521,262.8379,97.2435,8.814700000000001e-05,9.59e-06,0.0,0 STARLINK-3059,1 49181U 21082BD  22272.30991611  .00000959  00000-0  88147-4 0  9996,2 49181  69.9992 224.7521 0003037 262.8379  97.2435 14.98334535 58820,6950.179,96.107,574.155,569.933,0.0
49181.0,STARLINK-3059,PAYLOAD,2022-09-30 02:39:53,14.98339206,0.0003003999999999,69.9993,222.7319,259.6858,100.3962,0.00033887,3.954e-05,0.0,0 STARLINK-3059,1 49181U 21082BD  22273.11103065  .00003954  00000-0  33887-3 0  9992,2 49181  69.9993 222.7319 0003004 259.6858 100.3962 14.98339206 58926,6950.1640000000025,96.106,574.117,569.942,0.0
49181.0,STARLINK-3059,PAYLOAD,2022-09-30 05:52:09,14.98330561,0.0002953,69.9994,222.3953,259.0514,101.0313,0.00022279,2.566e-05,0.0,0 STARLINK-3059,1 49181U 21082BD  22273.24455841  .00002566  00000-0  22279-3 0  9999,2 49181  69.9994 222.3953 0002953 259.0514 101.0313 14.98330561 58969,6950.191,96.107,574.109,570.004,0.0
49181.0,STARLINK-3059,PAYLOAD,2022-09-30 13:52:49,14.98335022,0.0002948999999999,69.9995,221.5541,259.3563,100.7264,0.00024315,2.81e-05,0.0,0 STARLINK-3059,1 49181U 21082BD  22273.57835610  .00002810  00000-0  24315-3 0  9996,2 49181  69.9995 221.5541 0002949 259.3563 100.7264 14.98335022 58997,6950.177,96.107,574.092,569.993,0.0
49181.0,STARLINK-3059,PAYLOAD,2022-09-30 20:17:21,14.98340495,0.0003055,70.0006,220.8802,260.5234,99.558,0.00026381,3.057e-05,0.0,0 STARLINK-3059,1 49181U 21082BD  22273.84539244  .00003057  00000-0  26381-3 0  9999,2 49181  70.0006 220.8802 0003055 260.5234  99.5580 14.98340495 59057,6950.16,96.106,574.149,569.9019999999998,0.0
49181.0,STARLINK-3059,PAYLOAD,2022-10-01 04:18:01,14.98352424,0.0002953,70.001,220.0389,260.2897,99.7928,0.00049426,5.813e-05,0.0,0 STARLINK-3059,1 49181U 21082BD  22274.17918611  .00005813  00000-0  49426-3 0  9992,2 49181  70.0010 220.0389 0002953 260.2897  99.7928 14.98352424 59088,6950.124,96.106,574.0409999999998,569.936,0.0
49181.0,STARLINK-3059,PAYLOAD,2022-10-01 05:54:09,14.983445800000002,0.0002788,70.001,219.87,259.9412,100.1432,0.00026365,3.055e-05,0.0,0 STARLINK-3059,1 49181U 21082BD  22274.24594818  .00003055  00000-0  26365-3 0  9992,2 49181  70.0010 219.8700 0002788 259.9412 100.1432 14.98344580 59110,6950.148,96.106,573.951,570.075,0.0
49181.0,STARLINK-3059,PAYLOAD,2022-10-02 04:20:02,14.98336001,0.0002774999999999,70.0017,217.5143,255.6441,104.441,1.1746e-05,4.7e-07,0.0,0 STARLINK-3059,1 49181U 21082BD  22275.18058579  .00000047  00000-0  11746-4 0  9991,2 49181  70.0017 217.5143 0002775 255.6441 104.4410 14.98336001 59239,6950.174,96.107,573.9680000000002,570.111,0.0
49181.0,STARLINK-3059,PAYLOAD,2022-10-02 05:56:10,14.98334121,0.000295,70.0012,217.3454,259.7434,100.3392,-1.8010999999999994e-05,-3.08e-06,0.0,0 STARLINK-3059,1 49181U 21082BD  22275.24734580 -.00000308  00000-0 -18011-4 0  9995,2 49181  70.0012 217.3454 0002950 259.7434 100.3392 14.98334121 59267,6950.18,96.107,574.095,569.995,0.0
49181.0,STARLINK-3059,PAYLOAD,2022-10-02 20:21:23,14.98329493,0.0002875,70.0013,215.8306,260.0297,100.0538,-5.2046e-05,-7.14e-06,0.0,0 STARLINK-3059,1 49181U 21082BD  22275.84818840 -.00000714  00000-0 -52046-4 0  9990,2 49181  70.0013 215.8306 0002875 260.0297 100.0538 14.98329493 59350,6950.194,96.107,574.058,570.061,0.0
49181.0,STARLINK-3059,PAYLOAD,2022-10-03 04:22:04,14.98326097,0.0002832,70.0012,214.9897,265.7119,94.3716,-7.623e-06,-1.84e-06,0.0,0 STARLINK-3059,1 49181U 21082BD  22276.18199281 -.00000184  00000-0 -76230-5 0  9992,2 49181  70.0012 214.9897 0002832 265.7119  94.3716 14.98326097 59385,6950.205,96.107,574.038,570.102,0.0
49181.0,STARLINK-3059,PAYLOAD,2022-10-03 05:58:12,14.98325611,0.0002984,70.001,214.8218,265.0063,95.0755,-4.4855000000000005e-06,-1.46e-06,0.0,0 STARLINK-3059,1 49181U 21082BD  22276.24875317 -.00000146  00000-0 -44855-5 0  9996,2 49181  70.0010 214.8218 0002984 265.0063  95.0755 14.98325611 59414,6950.206,96.107,574.145,569.998,0.0
49181.0,STARLINK-3059,PAYLOAD,2022-10-03 20:23:24,14.9834012,0.0003057,70.0009,213.3065,266.3045,93.7764,0.00062937,7.426e-05,0.0,0 STARLINK-3059,1 49181U 21082BD  22276.84959190  .00007426  00000-0  62937-3 0  9999,2 49181  70.0009 213.3065 0003057 266.3045  93.7764 14.98340120 59509,6950.1619999999975,96.106,574.151,569.9019999999998,0.0
49181.0,STARLINK-3059,PAYLOAD,2022-10-04 01:11:48,14.98345632,0.0003001,70.001,212.8012,266.8538,93.2278,0.00091639,0.00010863,0.0,0 STARLINK-3059,1 49181U 21082BD  22277.04987216  .00010863  00000-0  91639-3 0  9992,2 49181  70.0010 212.8012 0003001 266.8538  93.2278 14.98345632 59517,6950.145,96.106,574.095,569.924,0.0
49181.0,STARLINK-3059,PAYLOAD,2022-10-04 12:24:45,14.98347219,0.0002558,70.0018,211.6223,277.10200000000003,82.9848,0.0009122,0.00010813,0.0,0 STARLINK-3059,1 49181U 21082BD  22277.51719024  .00010813  00000-0  91220-3 0  9995,2 49181  70.0018 211.6223 0002558 277.1020  82.9848 14.98347219 59604,6950.14,96.106,573.7819999999998,570.227,0.0
49181.0,STARLINK-3059,PAYLOAD,2022-10-05 06:02:13,14.98332738,0.0002904999999999,70.0013,209.7717,268.7932,91.2894,-8.7021e-05,-1.131e-05,0.0,0 STARLINK-3059,1 49181U 21082BD  22278.25154798 -.00001131  00000-0 -87021-4 0  9998,2 49181  70.0013 209.7717 0002905 268.7932  91.2894 14.98332738 59692,6950.184,96.107,574.068,570.03,0.0
49181.0,STARLINK-3059,PAYLOAD,2022-10-05 12:26:45,14.98337489,0.0003031,70.0013,209.0983,268.1152,91.966,6.835600000000001e-05,7.23e-06,0.0,0 STARLINK-3059,1 49181U 21082BD  22278.51858633  .00000723  00000-0  68356-4 0  9990,2 49181  70.0013 209.0983 0003031 268.1152  91.9660 14.98337489 59752,6950.17,96.107,574.141,569.928,0.0
49181.0,STARLINK-3059,PAYLOAD,2022-10-05 20:27:26,14.98330608,0.0002768999999999,70.0022,208.2576,262.0006,98.0839,0.00012088,1.35e-05,0.0,0 STARLINK-3059,1 49181U 21082BD  22278.85238873  .00001350  00000-0  12088-3 0  9992,2 49181  70.0022 208.2576 0002769 262.0006  98.0839 14.98330608 59807,6950.191,96.107,573.981,570.132,0.0
